HIMAWARI-8              
1 40267U 14060A   23333.53555228 -.00000267  00000+0  00000+0 0  9993
2 40267   0.0107 277.6036 0001008  15.7065 108.3114  1.00270426 33537
